{"type": "FeatureCollection", "features": [ {"type": "Feature", "properties": {"norad_id": 39634, "name": "SENTINEL-1A", "group": "resource", "lat": -26.787836702991953, "lon": 179.384543655069, "alt_km": 701.9494738676121, "timestamp": "2025-12-24T11:32:59.660873+00:00", "meta": {"OBJECT_NAME": "SENTINEL-1A", "OBJECT_ID": "2014-016A", "EPOCH": "2025-12-24T04:01:17.636736", "MEAN_MOTION": 14.59201702, "ECCENTRICITY": 0.0001252, "INCLINATION": 98.1797, "RA_OF_ASC_NODE": 3.2399, "ARG_OF_PERICENTER": 85.8443, "MEAN_ANOMALY": 274.29, "EPHEMERIS_TYPE": 0, "CLASSIFICATION_TYPE": "U", "NORAD_CAT_ID": 39634, "ELEMENT_SET_NO": 999, "REV_AT_EPOCH": 62449, "BSTAR": 1.7619e-06, "MEAN_MOTION_DOT": -3.7e-07, "MEAN_MOTION_DDOT": 0}, "tle": {"line1": "1 39634U 14016A   25358.16756524 -.00000037  00000+0  17619-5 0  9995", "line2": "2 39634  98.1797   3.2399 0001252  85.8443 274.2900 14.59201702624496"}}, "geometry": {"type": "Point", "coordinates": [179.384543655069, -26.787836702991953]}}, {"type": "Feature", "properties": {"norad_id": 39731, "name": "KAZEOSAT 1", "group": "resource", "lat": 1.506374198255918, "lon": -109.6542076803248, "alt_km": 754.2947308058328, "timestamp": "2025-12-24T11:32:59.660883+00:00", "meta": {"OBJECT_NAME": "KAZEOSAT 1", "OBJECT_ID": "2014-024A", "EPOCH": "2025-12-24T04:03:52.481088", "MEAN_MOTION": 14.42068707, "ECCENTRICITY": 0.0001212, "INCLINATION": 98.3421, "RA_OF_ASC_NODE": 69.8199, "ARG_OF_PERICENTER": 98.1983, "MEAN_ANOMALY": 261.9344, "EPHEMERIS_TYPE": 0, "CLASSIFICATION_TYPE": "U", "NORAD_CAT_ID": 39731, "ELEMENT_SET_NO": 999, "REV_AT_EPOCH": 61333, "BSTAR": 7.6573e-05, "MEAN_MOTION_DOT": 2.09e-06, "MEAN_MOTION_DDOT": 0}, "tle": {"line1": "1 39731U 14024A   25358.16935742  .00000209  00000+0  76573-4 0  9996", "line2": "2 39731  98.3421  69.8199 0001212  98.1983 261.9344 14.42068707613332"}}, "geometry": {"type": "Point", "coordinates": [-109.6542076803248, 1.506374198255918]}}, {"type": "Feature", "properties": {"norad_id": 39766, "name": "ALOS-2", "group": "resource", "lat": -20.79805125219907, "lon": -89.87161269727653, "alt_km": 636.5026222052438, "timestamp": "2025-12-24T11:32:59.660893+00:00", "meta": {"OBJECT_NAME": "ALOS-2", "OBJECT_ID": "2014-029A", "EPOCH": "2025-12-24T05:46:30.887328", "MEAN_MOTION": 14.79472967, "ECCENTRICITY": 0.0001378, "INCLINATION": 97.9228, "RA_OF_ASC_NODE": 92.9233, "ARG_OF_PERICENTER": 97.5112, "MEAN_ANOMALY": 262.6256, "EPHEMERIS_TYPE": 0, "CLASSIFICATION_TYPE": "U", "NORAD_CAT_ID": 39766, "ELEMENT_SET_NO": 999, "REV_AT_EPOCH": 62571, "BSTAR": 0.00029652, "MEAN_MOTION_DOT": 2.164e-05, "MEAN_MOTION_DDOT": 0}, "tle": {"line1": "1 39766U 14029A   25358.24063527  .00002164  00000+0  29652-3 0  9998", "line2": "2 39766  97.9228  92.9233 0001378  97.5112 262.6256 14.79472967625718"}}, "geometry": {"type": "Point", "coordinates": [-89.87161269727653, -20.79805125219907]}}, {"type": "Feature", "properties": {"norad_id": 40010, "name": "KAZEOSAT 2", "group": "resource", "lat": -8.462344281118511, "lon": -156.68020291612018, "alt_km": 623.0535774845212, "timestamp": "2025-12-24T11:32:59.660904+00:00", "meta": {"OBJECT_NAME": "KAZEOSAT 2", "OBJECT_ID": "2014-033A", "EPOCH": "2025-12-24T03:30:12.721248", "MEAN_MOTION": 14.85188452, "ECCENTRICITY": 0.0008611, "INCLINATION": 97.5495, "RA_OF_ASC_NODE": 201.8714, "ARG_OF_PERICENTER": 166.8706, "MEAN_ANOMALY": 193.2736, "EPHEMERIS_TYPE": 0, "CLASSIFICATION_TYPE": "U", "NORAD_CAT_ID": 40010, "ELEMENT_SET_NO": 999, "REV_AT_EPOCH": 62297, "BSTAR": 0.00016373, "MEAN_MOTION_DOT": 1.353e-05, "MEAN_MOTION_DDOT": 0}, "tle": {"line1": "1 40010U 14033A   25358.14598057  .00001353  00000+0  16373-3 0  9992", "line2": "2 40010  97.5495 201.8714 0008611 166.8706 193.2736 14.85188452622972"}}, "geometry": {"type": "Point", "coordinates": [-156.68020291612018, -8.462344281118511]}}, {"type": "Feature", "properties": {"norad_id": 40011, "name": "HODOYOSHI-4", "group": "resource", "lat": 2.3048821623152014, "lon": 7.0915817703891, "alt_km": 592.3161212863279, "timestamp": "2025-12-24T11:32:59.660915+00:00", "meta": {"OBJECT_NAME": "HODOYOSHI-4", "OBJECT_ID": "2014-033B", "EPOCH": "2025-12-24T04:17:50.108352", "MEAN_MOTION": 14.87520777, "ECCENTRICITY": 0.0024017, "INCLINATION": 97.541, "RA_OF_ASC_NODE": 186.4989, "ARG_OF_PERICENTER": 162.2139, "MEAN_ANOMALY": 197.9924, "EPHEMERIS_TYPE": 0, "CLASSIFICATION_TYPE": "U", "NORAD_CAT_ID": 40011, "ELEMENT_SET_NO": 999, "REV_AT_EPOCH": 62278, "BSTAR": 0.00016579, "MEAN_MOTION_DOT": 1.459e-05, "MEAN_MOTION_DDOT": 0}, "tle": {"line1": "1 40011U 14033B   25358.17905218  .00001459  00000+0  16579-3 0  9992", "line2": "2 40011  97.5410 186.4989 0024017 162.2139 197.9924 14.87520777622781"}}, "geometry": {"type": "Point", "coordinates": [7.0915817703891, 2.3048821623152014]}}, {"type": "Feature", "properties": {"norad_id": 40013, "name": "DEIMOS-2", "group": "resource", "lat": -26.589137508724757, "lon": 50.05934539004164, "alt_km": 594.5244577825852, "timestamp": "2025-12-24T11:32:59.660925+00:00", "meta": {"OBJECT_NAME": "DEIMOS-2", "OBJECT_ID": "2014-033D", "EPOCH": "2025-12-24T04:11:34.806624", "MEAN_MOTION": 14.93018884, "ECCENTRICITY": 0.0001398, "INCLINATION": 97.6056, "RA_OF_ASC_NODE": 233.5978, "ARG_OF_PERICENTER": 103.9083, "MEAN_ANOMALY": 256.2293, "EPHEMERIS_TYPE": 0, "CLASSIFICATION_TYPE": "U", "NORAD_CAT_ID": 40013, "ELEMENT_SET_NO": 999, "REV_AT_EPOCH": 61160, "BSTAR": 0.00011954, "MEAN_MOTION_DOT": 1.189e-05, "MEAN_MOTION_DDOT": 0}, "tle": {"line1": "1 40013U 14033D   25358.17470841  .00001189  00000+0  11954-3 0  9995", "line2": "2 40013  97.6056 233.5978 0001398 103.9083 256.2293 14.93018884611604"}}, "geometry": {"type": "Point", "coordinates": [50.05934539004164, -26.589137508724757]}}, {"type": "Feature", "properties": {"norad_id": 40015, "name": "HODOYOSHI-3", "group": "resource", "lat": -9.82077986278505, "lon": 165.13413931825758, "alt_km": 636.1870879648995, "timestamp": "2025-12-24T11:32:59.660936+00:00", "meta": {"OBJECT_NAME": "HODOYOSHI-3", "OBJECT_ID": "2014-033F", "EPOCH": "2025-12-24T03:30:28.806336", "MEAN_MOTION": 14.84844079, "ECCENTRICITY": 0.0032458, "INCLINATION": 97.6206, "RA_OF_ASC_NODE": 163.4857, "ARG_OF_PERICENTER": 209.1747, "MEAN_ANOMALY": 150.7657, "EPHEMERIS_TYPE": 0, "CLASSIFICATION_TYPE": "U", "NORAD_CAT_ID": 40015, "ELEMENT_SET_NO": 999, "REV_AT_EPOCH": 62164, "BSTAR": 0.00019209, "MEAN_MOTION_DOT": 1.595e-05, "MEAN_MOTION_DDOT": 0}, "tle": {"line1": "1 40015U 14033F   25358.14616674  .00001595  00000+0  19209-3 0  9992", "line2": "2 40015  97.6206 163.4857 0032458 209.1747 150.7657 14.84844079621647"}}, "geometry": {"type": "Point", "coordinates": [165.13413931825758, -9.82077986278505]}}, {"type": "Feature", "properties": {"norad_id": 40053, "name": "SPOT 7", "group": "resource", "lat": 42.81245409089243, "lon": -112.14367682767879, "alt_km": 686.6071284737654, "timestamp": "2025-12-24T11:32:59.660968+00:00", "meta": {"OBJECT_NAME": "SPOT 7", "OBJECT_ID": "2014-034A", "EPOCH": "2025-12-24T04:21:03.766176", "MEAN_MOTION": 14.60747668, "ECCENTRICITY": 0.0001513, "INCLINATION": 98.0889, "RA_OF_ASC_NODE": 59.9925, "ARG_OF_PERICENTER": 83.0275, "MEAN_ANOMALY": 277.1098, "EPHEMERIS_TYPE": 0, "CLASSIFICATION_TYPE": "U", "NORAD_CAT_ID": 40053, "ELEMENT_SET_NO": 999, "REV_AT_EPOCH": 61158, "BSTAR": 0.0001255, "MEAN_MOTION_DOT": 5.67e-06, "MEAN_MOTION_DDOT": 0}, "tle": {"line1": "1 40053U 14034A   25358.18129359  .00000567  00000+0  12550-3 0  9998", "line2": "2 40053  98.0889  59.9925 0001513  83.0275 277.1098 14.60747668611584"}}, "geometry": {"type": "Point", "coordinates": [-112.14367682767879, 42.81245409089243]}}, {"type": "Feature", "properties": {"norad_id": 40072, "name": "SKYSAT-B", "group": "resource", "lat": 63.778872229409565, "lon": 140.18576286189307, "alt_km": 595.2046071497889, "timestamp": "2025-12-24T11:32:59.660980+00:00", "meta": {"OBJECT_NAME": "SKYSAT-B", "OBJECT_ID": "2014-037D", "EPOCH": "2025-12-23T09:12:08.448768", "MEAN_MOTION": 14.8736338, "ECCENTRICITY": 0.00067806, "INCLINATION": 98.3626, "RA_OF_ASC_NODE": 301.6522, "ARG_OF_PERICENTER": 120.3207, "MEAN_ANOMALY": 239.8679, "EPHEMERIS_TYPE": 0, "CLASSIFICATION_TYPE": "U", "NORAD_CAT_ID": 40072, "ELEMENT_SET_NO": 999, "REV_AT_EPOCH": 61982, "BSTAR": 0.00018052931, "MEAN_MOTION_DOT": 1.571e-05, "MEAN_MOTION_DDOT": 0}, "tle": {"line1": "1 40072U 14037D   25357.38343112  .00001571  00000+0  18053-3 0  9998", "line2": "2 40072  98.3626 301.6522 0006780 120.3207 239.8679 14.87363380619827"}}, "geometry": {"type": "Point", "coordinates": [140.18576286189307, 63.778872229409565]}}, {"type": "Feature", "properties": {"norad_id": 40115, "name": "WORLDVIEW-3 (WV-3)", "group": "resource", "lat": -81.81787787092358, "lon": 176.29200031960374, "alt_km": 623.0108927053652, "timestamp": "2025-12-24T11:32:59.660991+00:00", "meta": {"OBJECT_NAME": "WORLDVIEW-3 (WV-3)", "OBJECT_ID": "2014-048A", "EPOCH": "2025-12-24T02:15:35.480160", "MEAN_MOTION": 14.8467277, "ECCENTRICITY": 0.0001995, "INCLINATION": 97.8765, "RA_OF_ASC_NODE": 70.2355, "ARG_OF_PERICENTER": 130.6513, "MEAN_ANOMALY": 229.4875, "EPHEMERIS_TYPE": 0, "CLASSIFICATION_TYPE": "U", "NORAD_CAT_ID": 40115, "ELEMENT_SET_NO": 999, "REV_AT_EPOCH": 61592, "BSTAR": 0.0001272, "MEAN_MOTION_DOT": 1.023e-05, "MEAN_MOTION_DDOT": 0}, "tle": {"line1": "1 40115U 14048A   25358.09416065  .00001023  00000+0  12720-3 0  9992", "line2": "2 40115  97.8765  70.2355 0001995 130.6513 229.4875 14.84672770615926"}}, "geometry": {"type": "Point", "coordinates": [176.29200031960374, -81.81787787092358]}}]}